SPACEMOBILE-006         
1 67232U 25309A   26132.03918633  .00001274  00000+0  76658-4 0  9995
2 67232  52.9963 137.1719 0011710  27.1274 333.0329 15.18341053 21106
